{
  "type": "FeatureCollection",
  "features": [
    {
      "type": "Feature",
      "properties": {
        "norad_id": 66705,
        "name": "FLOCK 4H-2",
        "group": "last-30-days",
        "lat": 28.41517507966291,
        "lon": -102.57762218323552,
        "alt_km": 509.1647633308994,
        "timestamp": "2025-12-27T20:30:58.021646+00:00",
        "meta_object_name": "FLOCK 4H-2",
        "meta_object_id": "2025-276AR",
        "meta_epoch": "2025-12-27T11:56:34.711872",
        "meta_mean_motion": 15.18168123,
        "meta_eccentricity": 0.0001679,
        "meta_inclination": 97.437,
        "meta_ra_of_asc_node": 73.0186,
        "meta_arg_of_pericenter": 126.5934,
        "meta_mean_anomaly": 233.5455,
        "meta_ephemeris_type": 0,
        "meta_classification_type": "U",
        "meta_norad_cat_id": 66705,
        "meta_element_set_no": 999,
        "meta_rev_at_epoch": 436,
        "meta_bstar": -0.00053703,
        "meta_mean_motion_dot": -0.00011013,
        "meta_mean_motion_ddot": 0,
        "tle_line1": "1 66705U 25276AR  25361.49762398 -.00011013  00000+0 -53703-3 0  9999",
        "tle_line2": "2 66705  97.4370  73.0186 0001679 126.5934 233.5455 15.18168123  4360"
      },
      "geometry": {
        "type": "Point",
        "coordinates": [
          -102.57762218323552,
          28.41517507966291
        ]
      }
    },
    {
      "type": "Feature",
      "properties": {
        "norad_id": 66706,
        "name": "FLOCK 4H-3",
        "group": "last-30-days",
        "lat": 80.92898819421681,
        "lon": 18.39282916982997,
        "alt_km": 507.4917256560011,
        "timestamp": "2025-12-27T20:30:58.021657+00:00",
        "meta_object_name": "FLOCK 4H-3",
        "meta_object_id": "2025-276AS",
        "meta_epoch": "2025-12-27T10:38:54.485088",
        "meta_mean_motion": 15.17532129,
        "meta_eccentricity": 0.0003136,
        "meta_inclination": 97.4437,
        "meta_ra_of_asc_node": 72.965,
        "meta_arg_of_pericenter": 224.7079,
        "meta_mean_anomaly": 135.3903,
        "meta_ephemeris_type": 0,
        "meta_classification_type": "U",
        "meta_norad_cat_id": 66706,
        "meta_element_set_no": 999,
        "meta_rev_at_epoch": 435,
        "meta_bstar": 0.00030713,
        "meta_mean_motion_dot": 6.096e-05,
        "meta_mean_motion_ddot": 0,
        "tle_line1": "1 66706U 25276AS  25361.44368617  .00006096  00000+0  30713-3 0  9990",
        "tle_line2": "2 66706  97.4437  72.9650 0003136 224.7079 135.3903 15.17532129  4356"
      },
      "geometry": {
        "type": "Point",
        "coordinates": [
          18.39282916982997,
          80.92898819421681
        ]
      }
    },
    {
      "type": "Feature",
      "properties": {
        "norad_id": 66707,
        "name": "FLOCK 4H-4",
        "group": "last-30-days",
        "lat": 57.74579806116313,
        "lon": 61.39680897115441,
        "alt_km": 511.10392763714754,
        "timestamp": "2025-12-27T20:30:58.021667+00:00",
        "meta_object_name": "FLOCK 4H-4",
        "meta_object_id": "2025-276AT",
        "meta_epoch": "2025-12-27T12:20:41.803008",
        "meta_mean_motion": 15.17270724,
        "meta_eccentricity": 0.0003753,
        "meta_inclination": 97.442,
        "meta_ra_of_asc_node": 73.0169,
        "meta_arg_of_pericenter": 230.4334,
        "meta_mean_anomaly": 129.6568,
        "meta_ephemeris_type": 0,
        "meta_classification_type": "U",
        "meta_norad_cat_id": 66707,
        "meta_element_set_no": 999,
        "meta_rev_at_epoch": 436,
        "meta_bstar": 0.00051043,
        "meta_mean_motion_dot": 0.00010105,
        "meta_mean_motion_ddot": 0,
        "tle_line1": "1 66707U 25276AT  25361.51437272  .00010105  00000+0  51043-3 0  9998",
        "tle_line2": "2 66707  97.4420  73.0169 0003753 230.4334 129.6568 15.17270724  4363"
      },
      "geometry": {
        "type": "Point",
        "coordinates": [
          61.39680897115441,
          57.74579806116313
        ]
      }
    },
    {
      "type": "Feature",
      "properties": {
        "norad_id": 66708,
        "name": "FLOCK 4H-5",
        "group": "last-30-days",
        "lat": 21.61096713395385,
        "lon": -103.65742881463326,
        "alt_km": 509.69805661426835,
        "timestamp": "2025-12-27T20:30:58.021677+00:00",
        "meta_object_name": "FLOCK 4H-5",
        "meta_object_id": "2025-276AU",
        "meta_epoch": "2025-12-27T11:54:46.204704",
        "meta_mean_motion": 15.18153439,
        "meta_eccentricity": 0.0003367,
        "meta_inclination": 97.4375,
        "meta_ra_of_asc_node": 73.0238,
        "meta_arg_of_pericenter": 116.2301,
        "meta_mean_anomaly": 243.9279,
        "meta_ephemeris_type": 0,
        "meta_classification_type": "U",
        "meta_norad_cat_id": 66708,
        "meta_element_set_no": 999,
        "meta_rev_at_epoch": 436,
        "meta_bstar": -0.0016005,
        "meta_mean_motion_dot": -0.00032584,
        "meta_mean_motion_ddot": 0,
        "tle_line1": "1 66708U 25276AU  25361.49636811 -.00032584  00000+0 -16005-2 0  9991",
        "tle_line2": "2 66708  97.4375  73.0238 0003367 116.2301 243.9279 15.18153439  4369"
      },
      "geometry": {
        "type": "Point",
        "coordinates": [
          -103.65742881463326,
          21.61096713395385
        ]
      }
    },
    {
      "type": "Feature",
      "properties": {
        "norad_id": 66709,
        "name": "FLOCK 4H-6",
        "group": "last-30-days",
        "lat": 45.71662492773812,
        "lon": -98.90986021905806,
        "alt_km": 506.8255039315054,
        "timestamp": "2025-12-27T20:30:58.021687+00:00",
        "meta_object_name": "FLOCK 4H-6",
        "meta_object_id": "2025-276AV",
        "meta_epoch": "2025-12-27T12:01:07.111200",
        "meta_mean_motion": 15.17973318,
        "meta_eccentricity": 0.0003037,
        "meta_inclination": 97.4424,
        "meta_ra_of_asc_node": 73.0393,
        "meta_arg_of_pericenter": 189.5168,
        "meta_mean_anomaly": 170.6009,
        "meta_ephemeris_type": 0,
        "meta_classification_type": "U",
        "meta_norad_cat_id": 66709,
        "meta_element_set_no": 999,
        "meta_rev_at_epoch": 436,
        "meta_bstar": 0.00054642,
        "meta_mean_motion_dot": 0.00011044,
        "meta_mean_motion_ddot": 0,
        "tle_line1": "1 66709U 25276AV  25361.50077675  .00011044  00000+0  54642-3 0  9997",
        "tle_line2": "2 66709  97.4424  73.0393 0003037 189.5168 170.6009 15.17973318  4367"
      },
      "geometry": {
        "type": "Point",
        "coordinates": [
          -98.90986021905806,
          45.71662492773812
        ]
      }
    },
    {
      "type": "Feature",
      "properties": {
        "norad_id": 66710,
        "name": "FLOCK 4H-7",
        "group": "last-30-days",
        "lat": 81.48909686727394,
        "lon": 12.52900501994329,
        "alt_km": 506.530791698352,
        "timestamp": "2025-12-27T20:30:58.021697+00:00",
        "meta_object_name": "FLOCK 4H-7",
        "meta_object_id": "2025-276AW",
        "meta_epoch": "2025-12-27T10:38:38.651424",
        "meta_mean_motion": 15.17542716,
        "meta_eccentricity": 0.0001055,
        "meta_inclination": 97.4383,
        "meta_ra_of_asc_node": 72.94,
        "meta_arg_of_pericenter": 254.694,
        "meta_mean_anomaly": 105.4177,
        "meta_ephemeris_type": 0,
        "meta_classification_type": "U",
        "meta_norad_cat_id": 66710,
        "meta_element_set_no": 999,
        "meta_rev_at_epoch": 435,
        "meta_bstar": 0.00031692,
        "meta_mean_motion_dot": 6.294e-05,
        "meta_mean_motion_ddot": 0,
        "tle_line1": "1 66710U 25276AW  25361.44350291  .00006294  00000+0  31692-3 0  9991",
        "tle_line2": "2 66710  97.4383  72.9400 0001055 254.6940 105.4177 15.17542716  4355"
      },
      "geometry": {
        "type": "Point",
        "coordinates": [
          12.52900501994329,
          81.48909686727394
        ]
      }
    },
    {
      "type": "Feature",
      "properties": {
        "norad_id": 66711,
        "name": "FLOCK 4H-8",
        "group": "last-30-days",
        "lat": 80.81727947923976,
        "lon": 19.4034388698354,
        "alt_km": 507.35781800493623,
        "timestamp": "2025-12-27T20:30:58.021707+00:00",
        "meta_object_name": "FLOCK 4H-8",
        "meta_object_id": "2025-276AX",
        "meta_epoch": "2025-12-27T10:38:58.284096",
        "meta_mean_motion": 15.17551588,
        "meta_eccentricity": 0.0002441,
        "meta_inclination": 97.4424,
        "meta_ra_of_asc_node": 72.9627,
        "meta_arg_of_pericenter": 243.0871,
        "meta_mean_anomaly": 117.0114,
        "meta_ephemeris_type": 0,
        "meta_classification_type": "U",
        "meta_norad_cat_id": 66711,
        "meta_element_set_no": 999,
        "meta_rev_at_epoch": 435,
        "meta_bstar": 0.0005378,
        "meta_mean_motion_dot": 0.00010737,
        "meta_mean_motion_ddot": 0,
        "tle_line1": "1 66711U 25276AX  25361.44373014  .00010737  00000+0  53780-3 0  9999",
        "tle_line2": "2 66711  97.4424  72.9627 0002441 243.0871 117.0114 15.17551588  4355"
      },
      "geometry": {
        "type": "Point",
        "coordinates": [
          19.4034388698354,
          80.81727947923976
        ]
      }
    }
  ]
}